[{"sales_outlet_id":2,"sales_outlet_type":"warehouse","address":"164-14 Jamaica Ave","city":"Jamaica","telephone":"972-871-0402","postal_code":11432,"manager":null},{"sales_outlet_id":3,"sales_outlet_type":"retail","address":"32-20 Broadway","city":"Long Island City","telephone":"777-718-3190","postal_code":11106,"manager":6.0},{"sales_outlet_id":4,"sales_outlet_type":"retail","address":"604 Union Street","city":"Brooklyn","telephone":"619-347-5193","postal_code":11215,"manager":11.0},{"sales_outlet_id":5,"sales_outlet_type":"retail","address":"100 Church Street","city":"New York","telephone":"343-212-5151","postal_code":10007,"manager":16.0},{"sales_outlet_id":6,"sales_outlet_type":"retail","address":"122 E Broadway","city":"New York","telephone":"613-555-4989","postal_code":10002,"manager":21.0},{"sales_outlet_id":7,"sales_outlet_type":"retail","address":"224 E 57th Street","city":"New York","telephone":"287-817-2330","postal_code":10021,"manager":26.0},{"sales_outlet_id":8,"sales_outlet_type":"retail","address":"687 9th Avenue","city":"New York","telephone":"652-212-7020","postal_code":10036,"manager":31.0},{"sales_outlet_id":9,"sales_outlet_type":"retail","address":"175 8th Avenue","city":"New York","telephone":"242-212-0080","postal_code":10011,"manager":36.0},{"sales_outlet_id":10,"sales_outlet_type":"retail","address":"183 W 10th Street","city":"New York","telephone":"674-646-6434","postal_code":10014,"manager":41.0}]